norad_id,name,regime,epoch,line1,line2,inclination,eccentricity,mean_motion,raan,arg_pericenter,mean_anomaly
28082,CHINASAT 20,EGO,19038.49550297,1 28082U 03052A   19038.49550297 -.00000185 +00000-0 +00000-0 0 0001,2 28082 004.6942 068.6159 0001860 288.6477 071.5101 00.9911104305576,4.6942,0.000186,0.99111043,68.6159,288.6477,71.5101
28082,CHINASAT 20,EGO,19038.94060211,1 28082U 03052A   19038.94060211 -.00000172 +00000-0 +00000-0 0 0001,2 28082 004.6950 068.6134 0001863 287.8834 231.0904 00.9911079205576,4.695,0.0001863,0.99110792,68.6134,287.8834,231.0904
28082,CHINASAT 20,EGO,19039.90009802,1 28082U 03052A   19039.90009802 -.00000143 +00000-0 +00000-0 0 0001,2 28082 004.6968 068.6078 0001889 286.9025 214.4286 00.9911023205577,4.6968,0.0001889,0.99110232,68.6078,286.9025,214.4286
28082,CHINASAT 20,EGO,19039.97180602,1 28082U 03052A   19039.97180602 -.00000141 +00000-0 +00000-0 0 0001,2 28082 004.6969 068.6073 0001891 286.7459 240.1712 00.9911018605577,4.6969,0.0001891,0.99110186,68.6073,286.7459,240.1712
28082,CHINASAT 20,EGO,19040.52965873,1 28082U 03052A   19040.52965873 -.00000124  00000-0  00000+0 0  7084,2 28082   4.6979  68.6040 0001913 286.3994  79.5640  0.99109842 55795,4.6979,0.0001913,0.99109842,68.604,286.3994,79.564
28082,CHINASAT 20,EGO,19040.91629273,1 28082U 03052A   19040.91629273 -.00000112 +00000-0 +00000-0 0 0001,2 28082 004.6986 068.6018 0001926 285.9530 217.9639 00.9910964405578,4.6986,0.0001926,0.99109644,68.6018,285.953,217.9639
28082,CHINASAT 20,EGO,19041.90844942,1 28082U 03052A   19041.90844942 -.00000082 +00000-0 +00000-0 0 0001,2 28082 004.7005 068.5960 0001970 285.1924 212.7314 00.9910909105579,4.7005,0.000197,0.99109091,68.596,285.1924,212.7314
28082,CHINASAT 20,EGO,19042.88082529,1 28082U 03052A   19042.88082529 -.00000053  00000-0  00000+0 0  7095,2 28082   4.7024  68.5905 0002023 284.7322 200.1386  0.99108578 55813,4.7024,0.0002023,0.99108578,68.5905,284.7322,200.1386
28082,CHINASAT 20,EGO,19043.95691146,1 28082U 03052A   19043.95691146 -.00000025 +00000-0 +00000-0 0 0001,2 28082 004.7046 068.5848 0002089 284.4602 224.3592 00.9910807605581,4.7046,0.0002089,0.99108076,68.5848,284.4602,224.3592
28082,CHINASAT 20,EGO,19044.63417297,1 28082U 03052A   19044.63417297 -.00000008 +00000-0 +00000-0 0 0001,2 28082 004.7060 068.5818 0002145 284.4899 105.9757 00.9910776605582,4.706,0.0002145,0.99107766,68.5818,284.4899,105.9757
28082,CHINASAT 20,EGO,19045.03764706,1 28082U 03052A   19045.03764706  .00000001  00000-0  00000+0 0  7103,2 28082   4.7068  68.5798 0002163 284.6952 249.7294  0.99107644 55836,4.7068,0.0002163,0.99107644,68.5798,284.6952,249.7294
28082,CHINASAT 20,EGO,19045.56666928,1 28082U 03052A   19045.56666928 +.00000012 +00000-0 +00000-0 0 0001,2 28082 004.7079 068.5776 0002214 284.9688 078.2093 00.9910743205583,4.7079,0.0002214,0.99107432,68.5776,284.9688,78.2093
28082,CHINASAT 20,EGO,19045.87548236,1 28082U 03052A   19045.87548236 +.00000018 +00000-0 +00000-0 0 0001,2 28082 004.7086 068.5761 0002228 285.2906 188.0713 00.9910734105583,4.7086,0.0002228,0.99107341,68.5761,285.2906,188.0713
28082,CHINASAT 20,EGO,19046.87474264,1 28082U 03052A   19046.87474264 +.00000035 +00000-0 +00000-0 0 0001,2 28082 004.7107 068.5723 0002305 286.4648 183.4291 00.9910708605584,4.7107,0.0002305,0.99107086,68.5723,286.4648,183.4291
28082,CHINASAT 20,EGO,19047.11795292,1 28082U 03052A   19047.11795292  .00000039  00000-0  00000+0 0  7110,2 28082   4.7112  68.5715 0002316 286.7945 269.8755  0.99107072 55852,4.7112,0.0002316,0.99107072,68.5715,286.7945,269.8755
28082,CHINASAT 20,EGO,19047.88420486,1 28082U 03052A   19047.88420486 +.00000048 +00000-0 +00000-0 0 0001,2 28082 004.7129 068.5684 0002379 288.1098 181.9553 00.9910693405585,4.7129,0.0002379,0.99106934,68.5684,288.1098,181.9553
28082,CHINASAT 20,EGO,19048.63380477,1 28082U 03052A   19048.63380477 +.00000056 +00000-0 +00000-0 0 0001,2 28082 004.7145 068.5658 0002430 289.5736 087.9445 00.9910689405586,4.7145,0.000243,0.99106894,68.5658,289.5736,87.9445
28082,CHINASAT 20,EGO,19049.15304400,1 28082U 03052A   19049.15304400  .00000060  00000-0  00000+0 0  7128,2 28082   4.7156  68.5637 0002455 290.8293 271.9511  0.99106942 55870,4.7156,0.0002455,0.99106942,68.5637,290.8293,271.9511
28082,CHINASAT 20,EGO,19049.65517416,1 28082U 03052A   19049.65517416 +.00000063 +00000-0 +00000-0 0 0001,2 28082 004.7167 068.5617 0002490 291.8445 090.0932 00.9910695705587,4.7167,0.000249,0.99106957,68.5617,291.8445,90.0932
28082,CHINASAT 20,EGO,19050.92338365,1 28082U 03052A   19050.92338365 +.00000066 +00000-0 +00000-0 0 0001,2 28082 004.7196 068.5564 0002558 294.9790 179.4510 00.9910721605588,4.7196,0.0002558,0.99107216,68.5564,294.979,179.451
28082,CHINASAT 20,EGO,19051.16146150,1 28082U 03052A   19051.16146150  .00000066  00000-0  00000+0 0  7135,2 28082   4.7201  68.5558 0002562 295.7490 263.6261  0.99107309 55895,4.7201,0.0002562,0.99107309,68.5558,295.749,263.6261
28082,CHINASAT 20,EGO,19051.70615267,1 28082U 03052A   19051.70615267 +.00000066 +00000-0 +00000-0 0 0001,2 28082 004.7213 068.5537 0002587 296.9447 096.7743 00.9910748205589,4.7213,0.0002587,0.99107482,68.5537,296.9447,96.7743
28082,CHINASAT 20,EGO,19052.16553583,1 28082U 03052A   19052.16553583 +.00000064 +00000-0 +00000-0 0 0001,2 28082 004.7223 068.5519 0002606 298.2837 259.3424 00.9910767805589,4.7223,0.0002606,0.99107678,68.5519,298.2837,259.3424
28082,CHINASAT 20,EGO,19052.73934236,1 28082U 03052A   19052.73934236 +.00000062 +00000-0 +00000-0 0 0001,2 28082 004.7235 068.5496 0002625 299.5862 102.7727 00.9910793405590,4.7235,0.0002625,0.99107934,68.5496,299.5862,102.7727
28082,CHINASAT 20,EGO,19053.16976354,1 28082U 03052A   19053.16976354  .00000059  00000-0  00000+0 0  7169,2 28082   4.7245  68.5480 0002642 300.7806 255.1527  0.99108158 55911,4.7245,0.0002642,0.99108158,68.548,300.7806,255.1527
28082,CHINASAT 20,EGO,19053.74355927,1 28082U 03052A   19053.74355927 +.00000054 +00000-0 +00000-0 0 0001,2 28082 004.7257 068.5455 0002655 302.1954 098.4680 00.9910847705591,4.7257,0.0002655,0.99108477,68.5455,302.1954,98.468
28082,CHINASAT 20,EGO,19054.78451316,1 28082U 03052A   19054.78451316 +.00000043 +00000-0 +00000-0 0 0001,2 28082 004.7279 068.5407 0002678 304.7351 107.3432 00.9910910905592,4.7279,0.0002678,0.99109109,68.5407,304.7351,107.3432
28082,CHINASAT 20,EGO,19055.78912951,1 28082U 03052A   19055.78912951  .00000029  00000-0  00000+0 0  7170,2 28082   4.7299  68.5354 0002684 306.9767 103.5539  0.99109767 55949,4.7299,0.0002684,0.99109767,68.5354,306.9767,103.5539
28082,CHINASAT 20,EGO,19056.75613182,1 28082U 03052A   19056.75613182 +.00000012 +00000-0 +00000-0 0 0001,2 28082 004.7319 068.5300 0002686 309.0157 086.5488 00.9911041905594,4.7319,0.0002686,0.99110419,68.53,309.0157,86.5488
28082,CHINASAT 20,EGO,19057.76038222,1 28082U 03052A   19057.76038222 -.00000007 +00000-0 +00000-0 0 0001,2 28082 004.7339 068.5240 0002680 310.7452 083.1464 00.9911107905595,4.7339,0.000268,0.99111079,68.524,310.7452,83.1464
28082,CHINASAT 20,EGO,19058.13523024,1 28082U 03052A   19058.13523024 -.00000015  00000-0  00000+0 0  7188,2 28082   4.7346  68.5219 0002681 311.1264 216.5155  0.99111297 55961,4.7346,0.0002681,0.99111297,68.5219,311.1264,216.5155
28082,CHINASAT 20,EGO,19058.71126397,1 28082U 03052A   19058.71126397 -.00000027 +00000-0 +00000-0 0 0001,2 28082 004.7358 068.5183 0002669 312.0249 061.1534 00.9911167705596,4.7358,0.0002669,0.99111677,68.5183,312.0249,61.1534
28082,CHINASAT 20,EGO,19059.76879262,1 28082U 03052A   19059.76879262 -.00000051 +00000-0 +00000-0 0 0001,2 28082 004.7378 068.5118 0002647 313.1241 077.3964 00.9911228805597,4.7378,0.0002647,0.99112288,68.5118,313.1241,77.3964
28082,CHINASAT 20,EGO,19060.27083067,1 28082U 03052A   19060.27083067 -.00000063  00000-0  00000+0 0  7233,2 28082   4.7388  68.5087 0002640 313.4454 256.2107  0.99112539 55981,4.7388,0.000264,0.99112539,68.5087,313.4454,256.2107
28082,CHINASAT 20,EGO,19060.77296062,1 28082U 03052A   19060.77296062 -.00000075 +00000-0 +00000-0 0 0001,2 28082 004.7397 068.5056 0002626 313.8305 074.9943 00.9911281405598,4.7397,0.0002626,0.99112814,68.5056,313.8305,74.9943
28082,CHINASAT 20,EGO,19061.27509034,1 28082U 03052A   19061.27509034 -.00000086 +00000-0 +00000-0 0 0001,2 28082 004.7406 068.5025 0002613 313.9929 254.0011 00.9911303305598,4.7406,0.0002613,0.99113033,68.5025,313.9929,254.0011
28082,CHINASAT 20,EGO,19061.77704565,1 28082U 03052A   19061.77704565 -.00000098 +00000-0 +00000-0 0 0001,2 28082 004.7416 068.4993 0002604 314.2368 072.8646 00.9911327205599,4.7416,0.0002604,0.99113272,68.4993,314.2368,72.8646
28082,CHINASAT 20,EGO,19062.78137661,1 28082U 03052A   19062.78137661 -.00000121  00000-0  00000+0 0  7247,2 28082   4.7434  68.4929 0002579 314.3383  71.1293  0.99113663 56013,4.7434,0.0002579,0.99113663,68.4929,314.3383,71.1293
28082,CHINASAT 20,EGO,19063.78557807,1 28082U 03052A   19063.78557807 -.00000143 +00000-0 +00000-0 0 0001,2 28082 004.7453 068.4863 0002557 314.1969 069.5919 00.9911397505601,4.7453,0.0002557,0.99113975,68.4863,314.1969,69.5919
28082,CHINASAT 20,EGO,19064.78975337,1 28082U 03052A   19064.78975337 -.00000163  00000-0  00000+0 0  7256,2 28082   4.7471  68.4796 0002534 313.7131  68.3888  0.99114211 56031,4.7471,0.0002534,0.99114211,68.4796,313.7131,68.3888
28082,CHINASAT 20,EGO,19065.86571726,1 28082U 03052A   19065.86571726 -.00000183 +00000-0 +00000-0 0 0001,2 28082 004.7492 068.4726 0002519 313.0863 092.9451 00.9911437405603,4.7492,0.0002519,0.99114374,68.4726,313.0863,92.9451
28082,CHINASAT 20,EGO,19066.29612059,1 28082U 03052A   19066.29612059 -.00000190 +00000-0 +00000-0 0 0001,2 28082 004.7500 068.4698 0002508 312.5401 247.0695 00.9911440805603,4.75,0.0002508,0.99114408,68.4698,312.5401,247.0695
28082,CHINASAT 20,EGO,19066.86995834,1 28082U 03052A   19066.86995834 -.00000200  00000-0  00000+0 0  7286,2 28082   4.7510  68.4661 0002513 312.3213  92.0476  0.99114439 56050,4.751,0.0002513,0.99114439,68.4661,312.3213,92.0476
